#aV2006  2 19  0  0   .00000000      96 DD+AD WGS84 FIT  NGA
## 1363       .00000000   900.00000000 53785  .0000000000000
+   29     1  2  3  4  5  6  7  8  9 10 11 13 14 15 16 17 18
+         19 20 21 22 23 24 25 26 27 28 29 30  0  0  0  0  0
+          0  0  0  0  0  0  0  0  0  0  0  0  0  0  0  0  0
+          0  0  0  0  0  0  0  0  0  0  0  0  0  0  0  0  0
+          0  0  0  0  0  0  0  0  0  0  0  0  0  0  0  0  0
++         0  0  0  0  0  0  0  0  0  0  0  0  0  0  0  0  0
++         0  0  0  0  0  0  0  0  0  0  0  0  0  0  0  0  0
++         0  0  0  0  0  0  0  0  0  0  0  0  0  0  0  0  0
++         0  0  0  0  0  0  0  0  0  0  0  0  0  0  0  0  0
++         0  0  0  0  0  0  0  0  0  0  0  0  0  0  0  0  0
%c cc cc ccc ccc cccc cccc cccc cccc ccccc ccccc ccccc ccccc
%c cc cc ccc ccc cccc cccc cccc cccc ccccc ccccc ccccc ccccc
%f  0.0000000  0.000000000  0.00000000000  0.000000000000000
%f  0.0000000  0.000000000  0.00000000000  0.000000000000000
%i    0    0    0    0      0      0      0      0         0
%i    0    0    0    0      0      0      0      0         0
/*      NGA, ST. LOUIS,MO.                                  
/*   EPHEMERIS COMPUTED FROM  3 DAYS OF DATA                
/* CCCCCCCCCCCCCCCCCCCCCCCCCCCCCCCCCCCCCCCCCCCCCCCCCCCCCCCCC
/* CCCCCCCCCCCCCCCCCCCCCCCCCCCCCCCCCCCCCCCCCCCCCCCCCCCCCCCCC
*  2006  2 19  1 45   .00000000                                                 
P  1 -20976.731729 -16158.807592   2550.455866     37.439563                    
V  1   3551.637712     62.662921  32077.642689       .019639                    
P  2  12953.075873  14092.306748 -18759.153555    -17.960667                    
V  2  -2145.851736  23170.817545  15988.274043       .015442                    
P  3 -24293.509265 -11023.759350   1426.946066     75.865806                    
V  3   -146.649524  -4145.483417 -30711.572646       .029884                    
P  4   7165.191198  22606.307394 -11627.422312    153.612137                    
V  4  -3650.769091  14694.475865  26748.976222       .116904                    
P  5  22647.068792 -13640.734196   1083.377793   -527.138746                    
V  5    639.757797   3976.944548  31308.569413       .886832                    
P  6   8721.240367 -13086.859496 -21214.808635    337.163479                    
V  6  23748.562446  13846.109595   1130.950898       .339287                    
P  7  24062.285106   4441.172064 -10282.524897    498.396378                    
V  7  10419.917064   9180.127025  27203.522198       .079313                    
P  8    516.270523  26081.719914   3515.110124    -57.069730                    
V  8  -3129.868681   4476.930635 -31840.165524      -.012140                    
P  9  14086.686899  -8734.156585  20153.659410      8.414755                    
V  9   1355.622819  26874.810148  10711.271081       .016894                    
P 10  21449.559367   1180.756094 -15908.289706     78.931644                    
V 10 -17083.429924  10276.061437 -22085.835767       .005804                    
P 11 -14538.966920  10347.888486  19549.859432    307.906005                    
V 11  -4443.290167 -24961.126233  10122.660130       .027521                    
P 13  -6537.865427  13117.048102 -22226.906373     42.266790                    
V 13 -23461.713865 -15196.683601  -2015.326027       .024570                    
P 14 -11424.299252 -18908.654987  14846.374304    -19.203607                    
V 14  16546.787938   8758.175494  23956.379497       .006545                    
P 15    786.932385 -26166.401840   2878.541957    568.077777                    
V 15   3630.467299  -3534.659912 -31651.949911       .058870                    
P 16 -16418.667114  -6848.364261 -19667.838427     27.166416                    
V 16  21702.969145 -12705.821050 -13546.560606       .018554                    
P 17   9939.505335  19044.124317  15651.582557     53.597268                    
V 17 -17914.972774  -8836.977953  22015.939478       .076966                    
P 18  13252.409018 -17704.134871  14587.229554   -221.517616                    
V 18  17654.929929  -5926.095421 -23669.354099      -.021018                    
P 19 -22133.254855  -3187.821995  14456.315630    -21.172415                    
V 19 -13629.009625 -12215.325464 -23691.905716       .009877                    
P 20 -23419.342125  12481.086226    399.776606    -32.419227                    
V 20   -860.764406  -2848.737398  31728.299763       .008777                    
P 21   6212.418604 -24795.274828  -6110.312349      6.713712                    
V 21   3062.439566   8183.941035 -30396.705307       .033444                    
P 22   -520.735007 -16239.817935  21168.340377     69.682108                    
V 22  24304.594476 -10655.864434  -7630.954516       .028245                    
P 23 -17668.550295   4788.038765 -19385.667447    149.941507                    
V 23 -20132.996090 -13758.282974  14871.372723      -.014114                    
P 24  -3454.408641  26152.183091   1802.435549     86.639362                    
V 24  -2830.424257  -2262.341906  31811.167882       .031193                    
P 25 -10548.339356 -20228.424631 -13104.619960    -96.650400                    
V 25   1601.906033 -17491.108224  25055.947889       .368962                    
P 26  23545.341275   7352.808735  10231.901934    -40.917235                    
V 26  10403.161892   8411.192017 -28368.518862      -.087602                    
P 27  -3690.385633  25200.508359  -6245.727306     36.456613                    
V 27  -3468.777156  -8697.189520 -30535.624912       .017288                    
P 28  -2495.865081  17200.399846  20255.484961     33.048942                    
V 28 -22989.301666  10449.935867 -12208.442330      -.007351                    
P 29  24134.597724   9096.941003   7132.301984    537.782042                    
V 29   6527.573288   5899.382120 -30433.925525       .117802                    
P 30  18153.868831 -17534.747952  -8351.730372     25.662445                    
V 30  10461.148897  -2480.447231  29012.867812       .020140                    
EOF
